{"type": "FeatureCollection", "features": [{"type": "Feature", "geometry": {"type": "Polygon", "coordinates": [[[-49.9509, -28.8935], [-49.9655, -28.8965], [-49.97, -28.9015], [-49.9887, -28.8972], [-49.9999, -28.8881], [-50.0085, -28.8894], [-50.0085, -28.8819], [-50.0146, -28.8762], [-50.0227, -28.8624], [-50.0517, -28.8462], [-50.071, -28.8378], [-50.0736, -28.8425], [-50.0845, -28.8446], [-50.0863, -28.832], [-50.0981, -28.8282], [-50.1059, -28.8299], [-50.1127, -28.8239], [-50.1281, -28.8206], [-50.1404, -28.8273], [-50.1538, -28.8199], [-50.1658, -28.8355], [-50.1829, -28.831], [-50.1812, -28.824], [-50.1916, -28.8243], [-50.1987, -28.8321], [-50.1935, -28.8395], [-50.1849, -28.8455], [-50.1786, -28.8689], [-50.1826, -28.8836], [-50.176, -28.89], [-50.1688, -28.8888], [-50.1597, -28.894], [-50.1594, -28.9065], [-50.1673, -28.9132], [-50.1812, -28.9195], [-50.1907, -28.9297], [-50.2082, -28.93], [-50.2085, -28.9244], [-50.2168, -28.9192], [-50.2254, -28.9332], [-50.245, -28.9338], [-50.2531, -28.9285], [-50.2614, -28.9394], [-50.2541, -28.9421], [-50.2452, -28.9584], [-50.2548, -28.9774], [-50.2506, -28.9832], [-50.2549, -28.9942], [-50.2607, -28.9909], [-50.2695, -28.9959], [-50.2702, -29.0144], [-50.2585, -29.0175], [-50.2486, -29.0243], [-50.237, -29.0192], [-50.2298, -29.021], [-50.2262, -29.0426], [-50.2185, -29.0496], [-50.2105, -29.0503], [-50.198, -29.0602], [-50.1885, -29.0597], [-50.1888, -29.0724], [-50.1957, -29.0813], [-50.1916, -29.0963], [-50.2033, -29.1033], [-50.2199, -29.096], [-50.2224, -29.0998], [-50.2406, -29.1023], [-50.2514, -29.12], [-50.2464, -29.1243], [-50.2479, -29.1322], [-50.2707, -29.1376], [-50.2994, -29.1197], [-50.3304, -29.114], [-50.3369, -29.1097], [-50.3515, -29.1199], [-50.3575, -29.1171], [-50.3563, -29.126], [-50.3653, -29.1317], [-50.362, -29.1382], [-50.3524, -29.1366], [-50.3559, -29.1567], [-50.3598, -29.1631], [-50.3569, -29.1905], [-50.3456, -29.1978], [-50.3428, -29.2043], [-50.3301, -29.2187], [-50.3244, -29.2219], [-50.3326, -29.2395], [-50.325, -29.2513], [-50.327, -29.2575], [-50.3156, -29.2592], [-50.3143, -29.2691], [-50.2974, -29.2782], [-50.3032, -29.2834], [-50.2956, -29.2916], [-50.287, -29.2955], [-50.2756, -29.2875], [-50.2703, -29.2909], [-50.2571, -29.2774], [-50.2415, -29.2729], [-50.1998, -29.257], [-50.1831, -29.2646], [-50.1446, -29.2702], [-50.1455, -29.2574], [-50.1519, -29.2432], [-50.1411, -29.2383], [-50.1407, -29.2284], [-50.1512, -29.2302], [-50.1489, -29.2211], [-50.1399, -29.2155], [-50.1397, -29.2073], [-50.1456, -29.1978], [-50.1269, -29.1979], [-50.1244, -29.2016], [-50.1078, -29.211], [-50.084, -29.2138], [-50.085, -29.205], [-50.0904, -29.2013], [-50.0854, -29.1936], [-50.0893, -29.1754], [-50.0753, -29.1884], [-50.054, -29.1831], [-50.0434, -29.1837], [-50.0386, -29.1774], [-50.018, -29.1628], [-50.0049, -29.1406], [-50.0071, -29.1344], [-49.9984, -29.1309], [-49.9843, -29.1367], [-49.9918, -29.1173], [-49.9689, -29.116], [-49.9705, -29.1013], [-49.9652, -29.082], [-49.9562, -29.0849], [-49.9545, -29.0775], [-49.9576, -29.0682], [-49.9625, -29.0653], [-49.994, -29.0696], [-49.9898, -29.063], [-49.9772, -29.0588], [-49.961, -29.0508], [-49.9612, -29.0438], [-49.9563, -29.0352], [-49.9461, -29.0308], [-49.9414, -29.0213], [-49.966, -29.0217], [-49.9574, -29.0121], [-49.9463, -28.9951], [-49.9425, -28.9822], [-49.9309, -28.9759], [-49.9337, -28.9658], [-49.9542, -28.9618], [-49.9557, -28.9489], [-49.9598, -28.9356], [-49.9564, -28.929], [-49.9651, -28.9255], [-49.9583, -28.9024], [-49.9515, -28.9005], [-49.9509, -28.8935]]]}, "properties": {"codarea": "4303608", "nome": "Cambará do Sul", "ibge_code": "4303608", "uf": "RS"}}, {"type": "Feature", "geometry": {"type": "Polygon", "coordinates": [[[-49.9016, -29.2153], [-49.9033, -29.2147], [-49.906, -29.2116], [-49.9098, -29.2102], [-49.9107, -29.209], [-49.9129, -29.2079], [-49.9153, -29.2077], [-49.9173, -29.2083], [-49.92, -29.2065], [-49.925, -29.2062], [-49.9266, -29.2065], [-49.9287, -29.2079], [-49.9313, -29.2074], [-49.9332, -29.2084], [-49.9354, -29.2083], [-49.938, -29.2076], [-49.9381, -29.2068], [-49.9426, -29.2057], [-49.9433, -29.205], [-49.9434, -29.2032], [-49.9453, -29.2015], [-49.948, -29.2022], [-49.9498, -29.2007], [-49.9539, -29.2011], [-49.9576, -29.1995], [-49.9598, -29.1998], [-49.9627, -29.1989], [-49.965, -29.1994], [-49.9655, -29.2016], [-49.9678, -29.2033], [-49.9704, -29.2029], [-49.9711, -29.2048], [-49.9704, -29.2067], [-49.97, -29.2095], [-49.969, -29.2115], [-49.9727, -29.2141], [-49.9744, -29.2147], [-49.9765, -29.2148], [-49.9778, -29.2159], [-49.9792, -29.2188], [-49.9801, -29.2194], [-49.9842, -29.2209], [-49.9877, -29.2237], [-49.994, -29.2268], [-49.995, -29.2269], [-49.9968, -29.2283], [-49.9976, -29.2263], [-49.9996, -29.2265], [-50.0008, -29.2275], [-50.0039, -29.2269], [-50.0042, -29.2258], [-50.0066, -29.2259], [-50.0099, -29.2254], [-50.0114, -29.2267], [-50.0136, -29.2267], [-50.0148, -29.2277], [-50.017, -29.2282], [-50.0209, -29.2285], [-50.0226, -29.2291], [-50.0264, -29.2312], [-50.0293, -29.2321], [-50.0322, -29.2321], [-50.0348, -29.2328], [-50.0357, -29.2361], [-50.0365, -29.2378], [-50.0386, -29.2384], [-50.0399, -29.2382], [-50.0414, -29.2401], [-50.0434, -29.2402], [-50.045, -29.2392], [-50.0468, -29.2394], [-50.0501, -29.2418], [-50.0516, -29.2422], [-50.0528, -29.2413], [-50.0555, -29.2406], [-50.0609, -29.2413], [-50.0634, -29.2425], [-50.0648, -29.244], [-50.0633, -29.2454], [-50.0631, -29.247], [-50.0651, -29.2495], [-50.0672, -29.2493], [-50.0672, -29.248], [-50.0681, -29.2457], [-50.0687, -29.2456], [-50.0706, -29.2482], [-50.0735, -29.2495], [-50.0763, -29.2501], [-50.0792, -29.2514], [-50.0816, -29.25], [-50.0834, -29.2502], [-50.0856, -29.2517], [-50.0861, -29.2532], [-50.0893, -29.2543], [-50.0922, -29.2532], [-50.0939, -29.2529], [-50.0953, -29.2516], [-50.0995, -29.2543], [-50.1014, -29.2559], [-50.1032, -29.2547], [-50.1047, -29.2546], [-50.1076, -29.2535], [-50.108, -29.2549], [-50.1062, -29.2565], [-50.1089, -29.2581], [-50.1108, -29.2585], [-50.1133, -29.2574], [-50.1143, -29.2576], [-50.1147, -29.2594], [-50.1156, -29.2608], [-50.1155, -29.2623], [-50.1125, -29.2674], [-50.1137, -29.2686], [-50.1123, -29.2699], [-50.1102, -29.2729], [-50.1094, -29.2752], [-50.1084, -29.2765], [-50.1084, -29.2782], [-50.1093, -29.2793], [-50.1085, -29.2801], [-50.1052, -29.2811], [-50.104, -29.2829], [-50.1008, -29.2839], [-50.101, -29.2857], [-50.0996, -29.2884], [-50.0945, -29.2921], [-50.0941, -29.2934], [-50.092, -29.2939], [-50.093, -29.2964], [-50.0915, -29.298], [-50.0894, -29.2978], [-50.0877, -29.2987], [-50.0854, -29.302], [-50.0827, -29.3023], [-50.0819, -29.3033], [-50.0788, -29.3049], [-50.0765, -29.3078], [-50.0739, -29.3081], [-50.072, -29.3103], [-50.0689, -29.3117], [-50.0651, -29.3105], [-50.0641, -29.3108], [-50.0623, -29.3127], [-50.0625, -29.3146], [-50.0618, -29.3152], [-50.0592, -29.3158], [-50.0562, -29.319], [-50.0553, -29.3193], [-50.0541, -29.3211], [-50.0527, -29.3222], [-50.0512, -29.3241], [-50.0514, -29.326], [-50.0508, -29.3265], [-50.0511, -29.3293], [-50.0501, -29.3319], [-50.0489, -29.3331], [-50.0449, -29.3352], [-50.044, -29.3374], [-50.043, -29.3386], [-50.0425, -29.3404], [-50.0401, -29.3434], [-50.038, -29.3449], [-50.035, -29.3477], [-50.0353, -29.3491], [-50.034, -29.3496], [-50.0329, -29.35], [-50.0311, -29.3479], [-50.0323, -29.347], [-50.0325, -29.3449], [-50.0301, -29.3425], [-50.0306, -29.3408], [-50.0302, -29.3387], [-50.0294, -29.3371], [-50.0294, -29.3333], [-50.0302, -29.3317], [-50.0322, -29.3297], [-50.0346, -29.3253], [-50.0339, -29.3235], [-50.0321, -29.3219], [-50.0267, -29.3161], [-50.0248, -29.3145], [-50.0224, -29.3119], [-50.016, -29.3076], [-50.0063, -29.3025], [-50.0019, -29.3023], [-49.999, -29.3039], [-49.9976, -29.3036], [-49.996, -29.3023], [-49.9934, -29.301], [-49.9898, -29.3006], [-49.9881, -29.3011], [-49.9828, -29.2974], [-49.9719, -29.2929], [-49.9641, -29.287], [-49.9626, -29.2865], [-49.9584, -29.2866], [-49.9545, -29.2854], [-49.9529, -29.2827], [-49.9509, -29.2787], [-49.9483, -29.2757], [-49.945, -29.2737], [-49.9434, -29.2731], [-49.9419, -29.271], [-49.9419, -29.2678], [-49.9413, -29.265], [-49.9404, -29.2632], [-49.9369, -29.2599], [-49.9327, -29.2577], [-49.9298, -29.2526], [-49.9089, -29.2535], [-49.9037, -29.2536], [-49.8867, -29.2584], [-49.8891, -29.2436], [-49.8889, -29.2418], [-49.8923, -29.2366], [-49.8938, -29.2335], [-49.8936, -29.2316], [-49.896, -29.2302], [-49.8961, -29.2258], [-49.898, -29.2236], [-49.9, -29.2224], [-49.8986, -29.2197], [-49.8989, -29.2177], [-49.9003, -29.2171], [-49.9016, -29.2153]]]}, "properties": {"codarea": "4311734", "nome": "Mampituba", "ibge_code": "4311734", "uf": "RS"}}, {"type": "Feature", "geometry": {"type": "Polygon", "coordinates": [[[-49.8035, -29.4436], [-49.7679, -29.3985], [-49.738, -29.3615], [-49.732, -29.3582], [-49.7304, -29.3502], [-49.7158, -29.3324], [-49.7129, -29.3256], [-49.7308, -29.3291], [-49.7466, -29.3238], [-49.7394, -29.3148], [-49.7421, -29.2988], [-49.7494, -29.2974], [-49.7623, -29.3003], [-49.7769, -29.2965], [-49.7801, -29.2907], [-49.7918, -29.2856], [-49.7994, -29.2875], [-49.8157, -29.2859], [-49.8297, -29.276], [-49.8436, -29.2776], [-49.8435, -29.2593], [-49.8547, -29.2573], [-49.8526, -29.2444], [-49.8586, -29.2416], [-49.8571, -29.2331], [-49.8695, -29.2244], [-49.9016, -29.2153], [-49.8889, -29.2418], [-49.8867, -29.2584], [-49.8852, -29.2609], [-49.8971, -29.2818], [-49.8886, -29.3124], [-49.8585, -29.3128], [-49.8306, -29.3236], [-49.815, -29.339], [-49.8289, -29.3569], [-49.8188, -29.3798], [-49.8026, -29.3919], [-49.8212, -29.4114], [-49.8355, -29.4242], [-49.8035, -29.4436]]]}, "properties": {"codarea": "4321501", "nome": "Torres", "ibge_code": "4321501", "uf": "RS"}}, {"type": "Feature", "geometry": {"type": "Polygon", "coordinates": [[[-49.9576, -29.1995], [-49.9468, -29.1995], [-49.9126, -29.1956], [-49.9039, -29.1909], [-49.8914, -29.1751], [-49.8778, -29.1695], [-49.8611, -29.1695], [-49.8308, -29.1564], [-49.8254, -29.1493], [-49.8289, -29.1283], [-49.832, -29.1218], [-49.8437, -29.1086], [-49.8515, -29.1028], [-49.8654, -29.1013], [-49.877, -29.0947], [-49.8929, -29.101], [-49.9042, -29.103], [-49.9174, -29.1002], [-49.9321, -29.0848], [-49.9377, -29.0835], [-49.9576, -29.0682], [-49.9545, -29.0775], [-49.9562, -29.0849], [-49.9652, -29.082], [-49.9705, -29.1013], [-49.9689, -29.116], [-49.9918, -29.1173], [-49.9843, -29.1367], [-49.9984, -29.1309], [-50.0071, -29.1344], [-50.0049, -29.1406], [-50.018, -29.1628], [-50.0386, -29.1774], [-50.0434, -29.1837], [-50.054, -29.1831], [-50.0753, -29.1884], [-50.0893, -29.1754], [-50.0854, -29.1936], [-50.0904, -29.2013], [-50.085, -29.205], [-50.084, -29.2138], [-50.1078, -29.211], [-50.1244, -29.2016], [-50.1269, -29.1979], [-50.1456, -29.1978], [-50.1397, -29.2073], [-50.1399, -29.2155], [-50.1489, -29.2211], [-50.1512, -29.2302], [-50.1407, -29.2284], [-50.1411, -29.2383], [-50.1519, -29.2432], [-50.1455, -29.2574], [-50.1446, -29.2702], [-50.1489, -29.282], [-50.1408, -29.2865], [-50.1329, -29.3003], [-50.1283, -29.2979], [-50.1304, -29.287], [-50.1171, -29.2918], [-50.1125, -29.304], [-50.0992, -29.3114], [-50.0915, -29.3108], [-50.0858, -29.318], [-50.0723, -29.3247], [-50.071, -29.3295], [-50.0558, -29.3414], [-50.0468, -29.3404], [-50.0385, -29.3472], [-50.041, -29.3551], [-50.034, -29.3496], [-50.0511, -29.3293], [-50.0512, -29.3241], [-50.0651, -29.3105], [-50.0765, -29.3078], [-50.1085, -29.2801], [-50.1155, -29.2623], [-50.0953, -29.2516], [-50.0893, -29.2543], [-50.0706, -29.2482], [-50.0609, -29.2413], [-50.0501, -29.2418], [-50.0365, -29.2378], [-50.0348, -29.2328], [-50.0099, -29.2254], [-49.9968, -29.2283], [-49.969, -29.2115], [-49.9711, -29.2048], [-49.9576, -29.1995]]]}, "properties": {"codarea": "4213807", "nome": "Praia Grande", "ibge_code": "4213807", "uf": "SC"}}, {"type": "Feature", "geometry": {"type": "Polygon", "coordinates": [[[-49.7432, -29.0393], [-49.6989, -29.0205], [-49.7178, -29.0056], [-49.7257, -29.0032], [-49.7064, -28.9669], [-49.7173, -28.9678], [-49.7193, -28.9626], [-49.7329, -28.9627], [-49.7463, -28.952], [-49.7581, -28.9481], [-49.7713, -28.9389], [-49.7686, -28.9263], [-49.762, -28.9171], [-49.7739, -28.9119], [-49.7826, -28.904], [-49.8085, -28.8949], [-49.8141, -28.8862], [-49.8286, -28.8916], [-49.8412, -28.8817], [-49.8498, -28.8828], [-49.8678, -28.88], [-49.8795, -28.8824], [-49.8876, -28.8886], [-49.8963, -28.89], [-49.9067, -28.9009], [-49.9212, -28.9097], [-49.9305, -28.9211], [-49.939, -28.9201], [-49.9492, -28.9246], [-49.9472, -28.9361], [-49.9562, -28.9408], [-49.9557, -28.9489], [-49.9542, -28.9618], [-49.9337, -28.9658], [-49.9309, -28.9759], [-49.9425, -28.9822], [-49.9463, -28.9951], [-49.9574, -29.0121], [-49.966, -29.0217], [-49.9414, -29.0213], [-49.9461, -29.0308], [-49.9563, -29.0352], [-49.9612, -29.0438], [-49.961, -29.0508], [-49.9772, -29.0588], [-49.9898, -29.063], [-49.994, -29.0696], [-49.9625, -29.0653], [-49.9576, -29.0682], [-49.9377, -29.0835], [-49.9321, -29.0848], [-49.9174, -29.1002], [-49.9042, -29.103], [-49.8929, -29.101], [-49.877, -29.0947], [-49.8654, -29.1013], [-49.8515, -29.1028], [-49.8437, -29.1086], [-49.832, -29.1218], [-49.8347, -29.1074], [-49.8341, -29.0952], [-49.8248, -29.0887], [-49.8217, -29.0801], [-49.8051, -29.084], [-49.7978, -29.0734], [-49.7986, -29.0682], [-49.7432, -29.0393]]]}, "properties": {"codarea": "4208708", "nome": "Jacinto Machado", "ibge_code": "4208708", "uf": "SC"}}, {"type": "Feature", "geometry": {"type": "Polygon", "coordinates": [[[-49.7327, -28.8041], [-49.7447, -28.7974], [-49.7677, -28.7803], [-49.7775, -28.7596], [-49.7989, -28.7517], [-49.797, -28.7366], [-49.7982, -28.7147], [-49.8236, -28.7203], [-49.8263, -28.716], [-49.8402, -28.7131], [-49.8499, -28.7056], [-49.8694, -28.701], [-49.8727, -28.7154], [-49.868, -28.722], [-49.8833, -28.7377], [-49.8918, -28.7392], [-49.8811, -28.7223], [-49.8933, -28.7229], [-49.9049, -28.7185], [-49.9079, -28.7138], [-49.926, -28.7183], [-49.9347, -28.7257], [-49.9314, -28.7379], [-49.9217, -28.7455], [-49.9276, -28.7538], [-49.937, -28.7567], [-49.9457, -28.7519], [-49.9534, -28.758], [-49.9508, -28.7633], [-49.9613, -28.7722], [-49.9622, -28.7776], [-49.9575, -28.7988], [-49.9661, -28.8198], [-49.9647, -28.8284], [-49.9578, -28.8291], [-49.9621, -28.8535], [-49.9571, -28.8618], [-49.9687, -28.8697], [-49.9671, -28.8767], [-49.9568, -28.8704], [-49.9495, -28.8757], [-49.9509, -28.8935], [-49.9515, -28.9005], [-49.9583, -28.9024], [-49.9651, -28.9255], [-49.9564, -28.929], [-49.9598, -28.9356], [-49.9557, -28.9489], [-49.9562, -28.9408], [-49.9472, -28.9361], [-49.9492, -28.9246], [-49.939, -28.9201], [-49.9305, -28.9211], [-49.9212, -28.9097], [-49.9067, -28.9009], [-49.8963, -28.89], [-49.8876, -28.8886], [-49.8795, -28.8824], [-49.8678, -28.88], [-49.7923, -28.8538], [-49.7492, -28.8314], [-49.7449, -28.8256], [-49.7462, -28.8175], [-49.7327, -28.8041]]]}, "properties": {"codarea": "4218103", "nome": "Timbé do Sul", "ibge_code": "4218103", "uf": "SC"}}, {"type": "Feature", "geometry": {"type": "Polygon", "coordinates": [[[-49.8402, -28.7131], [-49.8263, -28.716], [-49.8236, -28.7203], [-49.7982, -28.7147], [-49.797, -28.7366], [-49.7989, -28.7517], [-49.7775, -28.7596], [-49.7677, -28.7803], [-49.7447, -28.7974], [-49.7327, -28.8041], [-49.7231, -28.8072], [-49.7029, -28.844], [-49.6973, -28.8445], [-49.6927, -28.8523], [-49.6767, -28.8682], [-49.6713, -28.8259], [-49.6573, -28.8265], [-49.6502, -28.8199], [-49.6626, -28.8077], [-49.6634, -28.7942], [-49.6692, -28.7897], [-49.6641, -28.7763], [-49.6636, -28.7684], [-49.67, -28.7539], [-49.6738, -28.7439], [-49.6814, -28.7355], [-49.6735, -28.7289], [-49.6749, -28.7189], [-49.6737, -28.703], [-49.676, -28.6969], [-49.6869, -28.6868], [-49.6971, -28.6838], [-49.7119, -28.6655], [-49.7076, -28.6485], [-49.7101, -28.6403], [-49.7041, -28.63], [-49.7159, -28.6238], [-49.7443, -28.6243], [-49.757, -28.6273], [-49.7566, -28.616], [-49.7789, -28.6295], [-49.7843, -28.6244], [-49.7826, -28.6098], [-49.7981, -28.6177], [-49.7982, -28.624], [-49.8075, -28.6284], [-49.8088, -28.6353], [-49.8166, -28.6381], [-49.8153, -28.6485], [-49.8108, -28.6519], [-49.8246, -28.6657], [-49.8392, -28.6665], [-49.8404, -28.6761], [-49.8369, -28.6809], [-49.838, -28.69], [-49.8341, -28.6933], [-49.8425, -28.7063], [-49.8402, -28.7131]]]}, "properties": {"codarea": "4211256", "nome": "Morro Grande", "ibge_code": "4211256", "uf": "SC"}}]}